      2.10          N: GNSS NAV DATA                        RINEX VERSION / TYPE
fic2rin                                 11/17/2023 00:17:57 PGM / RUN BY / DATE
                                                            END OF HEADER
12 23 11 16 20  0  0.0 -.447699334472D-03 -.409272615798D-11  .000000000000D+00
     .620000000000D+02  .664687500000D+02  .423517641210D-08  .149150817402D+01
     .326149165630D-05  .870826712344D-02  .102352350950D-04  .515376620102D+04
     .417600000000D+06 -.122934579849D-06 -.278131981821D+01 -.152736902237D-06
     .964344529415D+00  .184093750000D+03  .139435842641D+01 -.773675083816D-08
    -.407159816984D-09  .100000000000D+01  .228800000000D+04  .000000000000D+00
     .240000000000D+01  .000000000000D+00 -.125728547573D-07  .620000000000D+02
     .410400000000D+06  .400000000000D+01
31 23 11 16 20  0  0.0 -.225799158216D-03 -.341060513165D-12  .000000000000D+00
     .680000000000D+02 -.593750000000D+01  .511664170009D-08  .131000951189D+01
    -.119209289551D-06  .106160826981D-01  .674463808537D-05  .515363839912D+04
     .417600000000D+06 -.912696123123D-07  .240777255488D+01  .139698386192D-06
     .954230166899D+00  .248781250000D+03  .624931529238D+00 -.817426906255D-08
    -.300726812193D-09  .100000000000D+01  .228800000000D+04  .000000000000D+00
     .240000000000D+01  .000000000000D+00 -.130385160446D-07  .680000000000D+02
     .410400000000D+06  .400000000000D+01
32 23 11 16 20  0  0.0 -.586474779993D-03 -.443378667114D-11  .000000000000D+00
     .340000000000D+02 -.208750000000D+02  .466483716634D-08 -.541890292317D+00
    -.933185219765D-06  .713324127719D-02  .881217420101D-05  .515359322166D+04
     .417600000000D+06 -.447034835815D-07  .132854743862D+01  .154599547386D-06
     .960284147621D+00  .211531250000D+03 -.222320633200D+01 -.798211820155D-08
     .642883921553D-09  .100000000000D+01  .228800000000D+04  .000000000000D+00
     .240000000000D+01  .000000000000D+00  .465661287308D-09  .340000000000D+02
     .410400000000D+06  .400000000000D+01
24 23 11 16 20  0  0.0 -.372769776732D-03 -.886757334229D-11  .000000000000D+00
     .102000000000D+03 -.996875000000D+01  .550630078810D-08 -.308736498972D+01
    -.698491930962D-06  .148688188056D-01  .595301389694D-05  .515361884308D+04
     .417600000000D+06  .577419996262D-07  .229338944504D+01 -.309199094772D-06
     .933730818116D+00  .249656250000D+03  .943669394932D+00 -.816212569958D-08
    -.803604901941D-10  .100000000000D+01  .228800000000D+04  .000000000000D+00
     .240000000000D+01  .000000000000D+00  .232830643654D-08  .102000000000D+03
     .410400000000D+06  .400000000000D+01
29 23 11 16 20  0  0.0 -.610203482211D-03  .113686837722D-12  .000000000000D+00
     .520000000000D+02  .118156250000D+03  .422981904608D-08 -.135655160836D+01
     .609457492828D-05  .251185102388D-02  .373087823391D-05  .515368826485D+04
     .417600000000D+06 -.204890966415D-07 -.172741708830D+01  .931322574615D-08
     .973949591630D+00  .315062500000D+03  .257200828190D+01 -.804319217410D-08
     .714315468392D-10  .100000000000D+01  .228800000000D+04  .000000000000D+00
     .240000000000D+01  .000000000000D+00 -.977888703346D-08  .520000000000D+02
     .410400000000D+06  .400000000000D+01
16 23 11 16 20  0  0.0 -.420909374952D-03  .670752342558D-11  .000000000000D+00
     .510000000000D+02  .768437500000D+02  .437911097898D-08 -.274016082578D+00
     .409595668316D-05  .136501382804D-01  .988319516182D-05  .515369105911D+04
     .417600000000D+06 -.167638063431D-07 -.276324456272D+01  .126659870148D-06
     .963934574418D+00  .190156250000D+03  .800609418813D+00 -.795640284469D-08
    -.506806824824D-09  .100000000000D+01  .228800000000D+04  .000000000000D+00
     .240000000000D+01  .000000000000D+00 -.102445483208D-07  .510000000000D+02
     .410400000000D+06  .400000000000D+01
15 23 11 16 20  0  0.0  .977860763669D-04  .375166564481D-11  .000000000000D+00
     .450000000000D+02 -.163750000000D+02  .499485091273D-08 -.231623106903D+01
    -.105053186417D-05  .154438151512D-01  .866129994392D-05  .515356824303D+04
     .417600000000D+06  .163912773132D-06  .119173738647D+01 -.763684511185D-07
     .933414409417D+00  .189500000000D+03  .127309089431D+01 -.786139888739D-08
     .711101048784D-09  .100000000000D+01  .228800000000D+04  .000000000000D+00
     .240000000000D+01  .000000000000D+00 -.107102096081D-07  .450000000000D+02
     .410400000000D+06  .400000000000D+01
17 23 11 16 20  0  0.0  .723171979189D-03 -.454747350886D-12  .000000000000D+00
     .580000000000D+02  .119406250000D+03  .436161025000D-08 -.123872168943D+01
     .636838376522D-05  .138444832992D-01  .511296093464D-05  .515361844826D+04
     .417600000000D+06 -.242143869400D-06 -.174194510246D+01  .158324837685D-06
     .971619916532D+00  .292000000000D+03 -.137463594125D+01 -.823641450830D-08
     .642883921553D-10  .100000000000D+01  .228800000000D+04  .000000000000D+00
     .240000000000D+01  .000000000000D+00 -.111758708954D-07  .580000000000D+02
     .410400000000D+06  .400000000000D+01
13 23 11 16 20  0  0.0  .595986377448D-03  .409272615798D-11  .000000000000D+00
     .600000000000D+02 -.693750000000D+01  .444018495153D-08 -.162586331651D+01
    -.370666384697D-06  .768457702361D-02  .789389014244D-05  .515365831566D+04
     .417600000000D+06  .160187482834D-06  .147770166229D+01 -.484287738800D-07
     .970057040187D+00  .228843750000D+03  .954167612522D+00 -.775353725166D-08
     .588238788221D-09  .100000000000D+01  .228800000000D+04  .000000000000D+00
     .240000000000D+01  .000000000000D+00 -.116415321827D-07  .600000000000D+02
     .410400000000D+06  .400000000000D+01
28 23 11 16 20  0  0.0 -.476902350783D-04 -.864019966684D-11  .000000000000D+00
     .141000000000D+03 -.846875000000D+01  .495699219291D-08  .782757843498D+00
    -.348314642906D-06  .790764112025D-03  .641867518425D-05  .515377378082D+04
     .417600000000D+06 -.130385160446D-07  .235174642487D+01  .223517417908D-07
     .961278377469D+00  .256468750000D+03  .155953525009D+01 -.799854745732D-08
    -.124290891500D-09  .100000000000D+01  .228800000000D+04  .000000000000D+00
     .240000000000D+01  .000000000000D+00 -.977888703346D-08  .141000000000D+03
     .410400000000D+06  .400000000000D+01
14 23 11 16 20  0  0.0  .245120376348D-03  .108002495836D-10  .000000000000D+00
     .240000000000D+02  .554062500000D+02  .476269838550D-08  .143293671577D+01
     .297278165817D-05  .367907213513D-02  .103190541267D-04  .515368207550D+04
     .417600000000D+06  .745058059692D-08 -.282270012673D+01  .521540641785D-07
     .947684828568D+00  .173125000000D+03 -.294760723956D+01 -.799997608826D-08
    -.537879547699D-09  .100000000000D+01  .228800000000D+04  .000000000000D+00
     .240000000000D+01  .000000000000D+00 -.791624188423D-08  .792000000000D+03
     .410400000000D+06  .400000000000D+01
11 23 11 16 20  0  0.0 -.462867319584D-03 -.161435309565D-10  .000000000000D+00
     .115000000000D+03 -.552500000000D+02  .433518057767D-08 -.198707881827D+01
    -.269524753094D-05  .127170060296D-02  .139139592648D-05  .515362883568D+04
     .417600000000D+06 -.745058059692D-08 -.706804753346D+00 -.391155481339D-07
     .966013635557D+00  .356312500000D+03 -.259734177910D+01 -.822355682986D-08
    -.120362156424D-09  .100000000000D+01  .228800000000D+04  .000000000000D+00
     .240000000000D+01  .000000000000D+00 -.838190317154D-08  .627000000000D+03
     .410400000000D+06  .400000000000D+01
30 23 11 16 20  0  0.0 -.467544887215D-03  .397903932026D-11  .000000000000D+00
     .940000000000D+02 -.746875000000D+01  .558094675455D-08  .207016218138D+01
    -.337138772011D-06  .658586609643D-02  .608712434769D-05  .515372573471D+04
     .417600000000D+06 -.225380063057D-06  .239057903522D+01 -.149011611938D-07
     .935307179641D+00  .251000000000D+03 -.255466114853D+01 -.836856286995D-08
    -.675028117631D-10  .100000000000D+01  .228800000000D+04  .000000000000D+00
     .240000000000D+01  .000000000000D+00  .372529029846D-08  .940000000000D+02
     .410400000000D+06  .400000000000D+01
22 23 11 16 20  0  0.0  .827065669000D-04 -.693489710102D-11  .000000000000D+00
     .108000000000D+03  .590312500000D+02  .447482925174D-08 -.692409301512D+00
     .307336449623D-05  .150313701015D-01  .105034559965D-04  .515373067284D+04
     .417600000000D+06 -.197440385818D-06 -.275994740723D+01 -.558793544769D-07
     .963212328837D+00  .182250000000D+03 -.116479417906D+01 -.807033616189D-08
    -.333585323739D-09  .100000000000D+01  .228800000000D+04  .000000000000D+00
     .340000000000D+01  .000000000000D+00 -.111758708954D-07  .108000000000D+03
     .410400000000D+06  .400000000000D+01
26 23 11 16 20  0  0.0  .216183252633D-03 -.261479726760D-11  .000000000000D+00
     .107000000000D+03  .548750000000D+02  .514271421469D-08  .526041611310D+00
     .303238630295D-05  .853986747097D-02  .951066613197D-05  .515378533745D+04
     .417600000000D+06  .353902578354D-07 -.292447828090D+01  .596046447754D-07
     .932939569615D+00  .178281250000D+03  .492830310486D+00 -.820319883902D-08
    -.611096883209D-09  .100000000000D+01  .228800000000D+04  .000000000000D+00
     .340000000000D+01  .000000000000D+00  .698491930962D-08  .107000000000D+03
     .410400000000D+06  .400000000000D+01
